NORAD_CAT_ID,OBJECT_NAME,OBJECT_TYPE,EPOCH,MEAN_MOTION,ECCENTRICITY,INCLINATION,RA_OF_ASC_NODE,ARG_OF_PERICENTER,MEAN_ANOMALY,BSTAR,MEAN_MOTION_DOT,MEAN_MOTION_DDOT,TLE_LINE0,TLE_LINE1,TLE_LINE2,SEMIMAJOR_AXIS,PERIOD,APOGEE,PERIGEE,DECAYED
54056.0,STARLINK-5226,PAYLOAD,2022-11-27 14:00:01,15.30226635,0.0001688,53.2164,323.3411,44.0432,197.176,-0.045612,-0.01241134,0.0,0 STARLINK-5226,1 54056U 22136F   22331.58334491 -.01241134  00000-0 -45612-1 0  9999,2 54056  53.2164 323.3411 0001688  44.0432 197.1760 15.30226635  6448,6853.273,94.104,476.294,473.981,0.0
54056.0,STARLINK-5226,PAYLOAD,2022-11-27 22:00:00,15.29362778,0.0001774,53.2167,321.7944,36.2664,241.6984,-0.046424,-0.01230696,0.0,0 STARLINK-5226,1 54056U 22136F   22331.91667824 -.01230696  00000-0 -46424-1 0  9998,2 54056  53.2167 321.7944 0001774  36.2664 241.6984 15.29362778  1300,6855.853,94.157,478.934,476.502,0.0
54056.0,STARLINK-5226,PAYLOAD,2022-11-28 16:00:00,15.27422035,0.0001824,53.2171,318.3254,35.0555,51.8199,-0.048582,-0.01214555,0.0,0 STARLINK-5226,1 54056U 22136F   22332.66667824 -.01214555  00000-0 -48582-1 0  9994,2 54056  53.2171 318.3254 0001824  35.0555  51.8199 15.27422035  6601,6861.659000000002,94.276,484.776,482.273,0.0
54056.0,STARLINK-5226,PAYLOAD,2022-11-28 22:00:01,15.26786002,0.0001839,53.2168,317.1706,31.6124,350.4655,-0.049913,-0.0122307,0.0,0 STARLINK-5226,1 54056U 22136F   22332.91668981 -.01223070  00000-0 -49913-1 0  9998,2 54056  53.2168 317.1706 0001839  31.6124 350.4655 15.26786002  1309,6863.565,94.316,486.692,484.167,0.0
54056.0,STARLINK-5226,PAYLOAD,2022-11-29 14:00:01,15.25069813,0.0001889,53.2168,314.0992,32.7308,53.5625,-0.052485,-0.01221011,0.0,0 STARLINK-5226,1 54056U 22136F   22333.58335648 -.01221011  00000-0 -52485-1 0  9994,2 54056  53.2168 314.0992 0001889  32.7308  53.5625 15.25069813  6747,6868.7130000000025,94.422,491.875,489.28,0.0
54056.0,STARLINK-5226,PAYLOAD,2022-11-29 22:00:00,15.24248594,0.0001839,53.2168,312.565,37.5501,79.2233,-0.05605,-0.01267818,0.0,0 STARLINK-5226,1 54056U 22136F   22333.91667824 -.01267818  00000-0 -56050-1 0  9992,2 54056  53.2168 312.5650 0001839  37.5501  79.2233 15.24248594  1305,6871.18,94.473,494.3080000000001,491.781,0.0
54056.0,STARLINK-5226,PAYLOAD,2022-11-30 14:00:01,15.22489192,0.0001923,53.2173,309.5051,38.8628,136.0315,-0.056008,-0.01207214,0.0,0 STARLINK-5226,1 54056U 22136F   22334.58335648 -.01207214  00000-0 -56008-1 0  9999,2 54056  53.2173 309.5051 0001923  38.8628 136.0315 15.22489192  6903,6876.472,94.582,499.66,497.015,0.0
54056.0,STARLINK-5226,PAYLOAD,2022-11-30 22:00:00,15.21632067,0.0001839,53.2174,307.9770000000001,43.1954,159.1078,-0.057412,-0.01206457,0.0,0 STARLINK-5226,1 54056U 22136F   22334.91667824 -.01206457  00000-0 -57412-1 0  9998,2 54056  53.2174 307.9770 0001839  43.1954 159.1078 15.21632067  1302,6879.054,94.635,502.184,499.654,0.0
54056.0,STARLINK-5226,PAYLOAD,2022-12-01 14:00:01,15.199187900000002,0.0001598,53.2174,304.9297,50.1682,203.9888,-0.06051,-0.01208755,0.0,0 STARLINK-5226,1 54056U 22136F   22335.58334491 -.01208755  00000-0 -60510-1 0  9999,2 54056  53.2174 304.9297 0001598  50.1682 203.9888 15.19918790  1305,6884.223000000001,94.742,507.18800000000016,504.98800000000006,0.0
54056.0,STARLINK-5226,PAYLOAD,2022-12-01 22:00:00,15.19126904,0.0001791,53.2167,303.4081,36.494,242.0106,-0.066651,-0.01293083,0.0,0 STARLINK-5226,1 54056U 22136F   22335.91667824 -.01293083  00000-0 -66651-1 0  9995,2 54056  53.2167 303.4081 0001791  36.4940 242.0106 15.19126904  7100,6886.615,94.791,509.713,507.247,0.0
54056.0,STARLINK-5226,PAYLOAD,2022-12-02 14:00:01,15.17365208,0.0001644,53.2168,300.3728,38.3469,285.8576,-0.0666279999999999,-0.01233497,0.0,0 STARLINK-5226,1 54056U 22136F   22336.58334491 -.01233497  00000-0 -66628-1 0  9997,2 54056  53.2168 300.3728 0001644  38.3469 285.8576 15.17365208  1301,6891.944,94.901,514.942,512.6759999999998,0.0
54056.0,STARLINK-5226,PAYLOAD,2022-12-02 16:00:00,15.17130471,0.0001756,53.2173,299.993,35.9757,23.6588,-0.06539,-0.0120493,0.0,0 STARLINK-5226,1 54056U 22136F   22336.66667824 -.01204930  00000-0 -65390-1 0  9990,2 54056  53.2173 299.9930 0001756  35.9757  23.6588 15.17130471  7211,6892.655,94.916,515.731,513.31,0.0
54056.0,STARLINK-5226,PAYLOAD,2022-12-02 22:00:00,15.1650859,0.0001781,53.2169,298.8568,34.5821,310.9137,-0.068165,-0.01231411,0.0,0 STARLINK-5226,1 54056U 22136F   22336.91667824 -.01231411  00000-0 -68165-1 0  9995,2 54056  53.2169 298.8568 0001781  34.5821 310.9137 15.16508590  1302,6894.5390000000025,94.955,517.632,515.1759999999998,0.0
54056.0,STARLINK-5226,PAYLOAD,2022-12-03 14:00:01,15.14794155,0.0001729,53.2169,295.8331,34.8135,350.1776,-0.071747,-0.01233865,0.0,0 STARLINK-5226,1 54056U 22136F   22337.58334491 -.01233865  00000-0 -71747-1 0  9995,2 54056  53.2169 295.8331 0001729  34.8135 350.1776 15.14794155  7358,6899.741,95.062,522.799,520.413,0.0
54056.0,STARLINK-5226,PAYLOAD,2022-12-03 22:00:00,15.13936022,0.0003249,53.2168,294.3234,283.1738,120.021,-0.073642,-0.01236153,0.0,0 STARLINK-5226,1 54056U 22136F   22337.91667824 -.01236153  00000-0 -73642-1 0  9990,2 54056  53.2168 294.3234 0003249 283.1738 120.0210 15.13936022  1306,6902.348000000001,95.116,526.455,521.97,0.0
54056.0,STARLINK-5226,PAYLOAD,2022-12-04 14:00:01,15.12211673,0.0001822,53.2171,291.3115,34.9386,41.5741,-0.076087,-0.01217849,0.0,0 STARLINK-5226,1 54056U 22136F   22338.58334491 -.01217849  00000-0 -76087-1 0  9992,2 54056  53.2171 291.3115 0001822  34.9386  41.5741 15.12211673  1304,6907.594,95.225,530.717,528.2,0.0
54056.0,STARLINK-5226,PAYLOAD,2022-12-04 22:00:00,15.11368996,0.0003356,53.2169,289.8078,282.9081,168.71,-0.079407,-0.01239748,0.0,0 STARLINK-5226,1 54056U 22136F   22338.91667824 -.01239748  00000-0 -79407-1 0  9999,2 54056  53.2169 289.8078 0003356 282.9081 168.7100 15.11368996  7567,6910.161,95.278,534.345,529.707,0.0
54056.0,STARLINK-5226,PAYLOAD,2022-12-05 06:00:00,15.10502616,0.0001934,53.2172,288.3085,37.756,67.9477,-0.080397,-0.01226121,0.0,0 STARLINK-5226,1 54056U 22136F   22339.25001157 -.01226121  00000-0 -80397-1 0  9999,2 54056  53.2172 288.3085 0001934  37.7560  67.9477 15.10502616  7612,6912.803000000001,95.333,536.005,533.331,0.0
54056.0,STARLINK-5226,PAYLOAD,2022-12-05 14:00:01,15.09537931,0.0001881,53.2171,286.8079,34.0566,84.7673,-0.053058,-0.00804184,0.0,0 STARLINK-5226,1 54056U 22136F   22339.58335648 -.00804184  00000-0 -53058-1 0  9994,2 54056  53.2171 286.8079 0001881  34.0566  84.7673 15.09537931  1305,6915.748000000001,95.393,538.914,536.312,0.0
54056.0,STARLINK-5226,PAYLOAD,2022-12-05 16:00:00,15.09283597,0.0001886,53.2172,286.4329,36.6306,175.2489,-0.036943,-0.00557573,0.0,0 STARLINK-5226,1 54056U 22136F   22339.66667824 -.00557573  00000-0 -36943-1 0  9998,2 54056  53.2172 286.4329 0001886  36.6306 175.2489 15.09283597  7678,6916.525,95.41,539.694,537.085,0.0
54056.0,STARLINK-5226,PAYLOAD,2022-12-05 22:00:01,15.08847404,0.0001824,53.2177,285.3099,41.0027,89.9216,-0.0011445,-0.00018461,0.0,0 STARLINK-5226,1 54056U 22136F   22339.91668981 -.00018461  00000-0 -11445-2 0  9990,2 54056  53.2177 285.3099 0001824  41.0027  89.9216 15.08847404  1302,6917.858,95.437,540.985,538.461,0.0
54056.0,STARLINK-5226,PAYLOAD,2022-12-06 00:00:00,15.08835178,0.0001869,53.2177,284.9365,42.4218,181.3424,0.00015838,2.233e-05,0.0,0 STARLINK-5226,1 54056U 22136F   22340.00001157  .00002233  00000-0  15838-3 0  9997,2 54056  53.2177 284.9365 0001869  42.4218 181.3424 15.08835178  7724,6917.895,95.438,541.053,538.467,0.0
54056.0,STARLINK-5226,PAYLOAD,2022-12-06 08:00:01,15.08848141,0.0001799,53.2142,283.4432,36.8581,198.3512,0.0041812,0.00066903,0.0,0 STARLINK-5226,1 54056U 22136F   22340.33334491  .00066903  00000-0  41812-2 0  9997,2 54056  53.2142 283.4432 0001799  36.8581 198.3512 15.08848141  7772,6917.856,95.437,540.965,538.476,0.0
54056.0,STARLINK-5226,PAYLOAD,2022-12-06 14:00:01,15.08895912,0.0001649,53.2143,282.3193,41.0509,112.9401,-0.0019033,-0.00030498,0.0,0 STARLINK-5226,1 54056U 22136F   22340.58335648 -.00030498  00000-0 -19033-2 0  9991,2 54056  53.2143 282.3193 0001649  41.0509 112.9401 15.08895912  1307,6917.709,95.434,540.715,538.434,0.0
54056.0,STARLINK-5226,PAYLOAD,2022-12-06 22:00:00,15.08889953,0.0001599,53.2145,280.8229,42.9316,122.6412,-0.0023894,-0.00038166,0.0,0 STARLINK-5226,1 54056U 22136F   22340.91667824 -.00038166  00000-0 -23894-2 0  9992,2 54056  53.2145 280.8229 0001599  42.9316 122.6412 15.08889953  1300,6917.728,95.434,540.6990000000002,538.487,0.0
54056.0,STARLINK-5226,PAYLOAD,2022-12-07 02:00:01,15.08886013,0.000171,53.2142,280.0756,38.1024,313.2915,-0.0044906999999999,-0.00071142,0.0,0 STARLINK-5226,1 54056U 22136F   22341.08334491 -.00071142  00000-0 -44907-2 0  9991,2 54056  53.2142 280.0756 0001710  38.1024 313.2915 15.08886013  7881,6917.74,95.435,540.788,538.422,0.0
54056.0,STARLINK-5226,PAYLOAD,2022-12-07 14:00:01,15.08827859,0.0001665999999999,53.2141,277.8298,40.6851,148.1313,0.000583,9e-05,0.0,0 STARLINK-5226,1 54056U 22136F   22341.58334491  .00009000  00000-0  58300-3 0  9991,2 54056  53.2141 277.8298 0001666  40.6851 148.1313 15.08827859  7960,6917.917,95.438,540.935,538.63,0.0
54056.0,STARLINK-5226,PAYLOAD,2022-12-07 22:00:00,15.08868021,0.0001689,53.2142,276.3337,44.6208,155.7782,-0.0006677,-0.00010907,0.0,0 STARLINK-5226,1 54056U 22136F   22341.91667824 -.00010907  00000-0 -66770-3 0  9997,2 54056  53.2142 276.3337 0001689  44.6208 155.7782 15.08868021  1306,6917.795,95.436,540.828,538.491,0.0
54056.0,STARLINK-5226,PAYLOAD,2022-12-08 14:00:01,15.08847035,0.0001781999999999,53.2142,273.3405,41.7506,181.89,-0.0019753,-0.00031594,0.0,0 STARLINK-5226,1 54056U 22136F   22342.58334491 -.00031594  00000-0 -19753-2 0  9995,2 54056  53.2142 273.3405 0001782  41.7506 181.8900 15.08847035  1306,6917.859,95.437,540.957,538.491,0.0
